$$SOE
2460721.500000000, A.D. 2025-Feb-15 00:00:00.0000, -2.099401145525963E+08, 2.592891653774781E+08, 4.138944365997510E+07,
2460728.500000000, A.D. 2025-Feb-22 00:00:00.0000, -2.200172688171335E+08, 2.523477288870183E+08, 4.122386386669606E+07,
2460735.500000000, A.D. 2025-Mar-01 00:00:00.0000, -2.298161383425568E+08, 2.450871691172747E+08, 4.100614022964992E+07,
2460742.500000000, A.D. 2025-Mar-08 00:00:00.0000, -2.393272859066849E+08, 2.375198174614592E+08, 4.073707568881291E+07,
2460749.500000000, A.D. 2025-Mar-15 00:00:00.0000, -2.485418674003659E+08, 2.296581864375619E+08, 4.041752876518205E+07,
2460756.500000000, A.D. 2025-Mar-22 00:00:00.0000, -2.574516275441759E+08, 2.215149400615218E+08, 4.004841007136545E+07,
2460763.500000000, A.D. 2025-Mar-29 00:00:00.0000, -2.660488928317364E+08, 2.131028633975546E+08, 3.963067859044011E+07,
2460770.500000000, A.D. 2025-Apr-05 00:00:00.0000, -2.743265615266488E+08, 2.044348344541133E+08, 3.916533796185741E+07,
2460777.500000000, A.D. 2025-Apr-12 00:00:00.0000, -2.822780927932025E+08, 1.955237985515208E+08, 3.865343297032140E+07,
2460784.500000000, A.D. 2025-Apr-19 00:00:00.0000, -2.898974952904045E+08, 1.863827442900204E+08, 3.809604619122245E+07,
2460791.500000000, A.D. 2025-Apr-26 00:00:00.0000, -2.971793150911563E+08, 1.770246809087064E+08, 3.749429475753162E+07,
2460798.500000000, A.D. 2025-May-03 00:00:00.0000, -3.041186229413571E+08, 1.674626170370882E+08, 3.684932724457177E+07,
2460805.500000000, A.D. 2025-May-10 00:00:00.0000, -3.107110009525171E+08, 1.577095408229476E+08, 3.616232067501088E+07,
2460812.500000000, A.D. 2025-May-17 00:00:00.0000, -3.169525288057218E+08, 1.477784013638791E+08, 3.543447764053416E+07,
2460819.500000000, A.D. 2025-May-24 00:00:00.0000, -3.228397693993446E+08, 1.376820913505467E+08, 3.466702352188981E+07,
2460826.500000000, A.D. 2025-May-31 00:00:00.0000, -3.283697536204513E+08, 1.274334311897727E+08, 3.386120379544508E+07,
2460833.500000000, A.D. 2025-Jun-07 00:00:00.0000, -3.335399647305448E+08, 1.170451557643397E+08, 3.301828156156701E+07,
2460840.500000000, A.D. 2025-Jun-14 00:00:00.0000, -3.383483248149812E+08, 1.065299031113800E+08, 3.213953545664703E+07,
2460847.500000000, A.D. 2025-Jun-21 00:00:00.0000, -3.427931821581172E+08, 9.590020169771804E+07, 3.122625756884354E+07,
2460854.500000000, A.D. 2025-Jun-28 00:00:00.0000, -3.468732964793015E+08, 8.516845800500430E+07, 3.027975121273146E+07,
2460861.500000000, A.D. 2025-Jul-05 00:00:00.0000, -3.505878236005540E+08, 7.434694652116333E+07, 2.930132887503043E+07,
2460868.500000000, A.D. 2025-Jul-12 00:00:00.0000, -3.539363007932879E+08, 6.344780127255489E+07, 2.829231037173972E+07,
2460875.500000000, A.D. 2025-Jul-19 00:00:00.0000, -3.569186326654747E+08, 5.248300826622030E+07, 2.725402114914975E+07,
2460882.500000000, A.D. 2025-Jul-26 00:00:00.0000, -3.595350774204719E+08, 4.146439873039775E+07, 2.618779070117816E+07,
2460889.500000000, A.D. 2025-Aug-02 00:00:00.0000, -3.617862334567032E+08, 3.040364311885944E+07, 2.509495109474269E+07,
2460896.500000000, A.D. 2025-Aug-09 00:00:00.0000, -3.636730263146687E+08, 1.931224580891094E+07, 2.397683559560088E+07,
2460903.500000000, A.D. 2025-Aug-16 00:00:00.0000, -3.651966959198095E+08, 8.201540375699410E+06, 2.283477737811525E+07,
2460910.500000000, A.D. 2025-Aug-23 00:00:00.0000, -3.663587838496196E+08, -2.917314593149589E+06, 2.167010828908442E+07,
2460917.500000000, A.D. 2025-Aug-30 00:00:00.0000, -3.671611203124868E+08, -1.403333847936586E+07, 2.048415768939976E+07,
2460924.500000000, A.D. 2025-Sep-06 00:00:00.0000, -3.676058122688352E+08, -2.513572946192542E+07, 1.927825158085573E+07,
2460931.500000000, A.D. 2025-Sep-13 00:00:00.0000, -3.676952343770097E+08, -3.621386572290573E+07, 1.805371196398426E+07,
2460938.500000000, A.D. 2025-Sep-20 00:00:00.0000, -3.674320195019994E+08, -4.725730872083371E+07, 1.681185598810214E+07,
2460945.500000000, A.D. 2025-Sep-27 00:00:00.0000, -3.668190477323185E+08, -5.825580546036932E+07, 1.555399504664577E+07,
2460952.500000000, A.D. 2025-Oct-04 00:00:00.0000, -3.658594359191245E+08, -6.919928926030634E+07, 1.428143404242943E+07,
2460959.500000000, A.D. 2025-Oct-11 00:00:00.0000, -3.645565281106663E+08, -8.007788000535724E+07, 1.299547077552217E+07,
2460966.500000000, A.D. 2025-Oct-18 00:00:00.0000, -3.629138866000680E+08, -9.088188419513653E+07, 1.169739540100805E+07,
2460973.500000000, A.D. 2025-Oct-25 00:00:00.0000, -3.609352834464648E+08, -1.016017948140020E+08, 1.038848994058791E+07,
2460980.500000000, A.D. 2025-Nov-01 00:00:00.0000, -3.586246924266388E+08, -1.122282910379649E+08, 9.070027841526397E+06,
2460987.500000000, A.D. 2025-Nov-08 00:00:00.0000, -3.559862813766669E+08, -1.227522378388576E+08, 7.743273573091336E+06,
2460994.500000000, A.D. 2025-Nov-15 00:00:00.0000, -3.530244047664491E+08, -1.331646855701669E+08, 6.409482238172762E+06,
2461001.500000000, A.D. 2025-Nov-22 00:00:00.0000, -3.497435960911207E+08, -1.434568693389788E+08, 5.069899177428663E+06,
2461008.500000000, A.D. 2025-Nov-29 00:00:00.0000, -3.461485602167231E+08, -1.536202070548809E+08, 3.725759669303961E+06,
2461015.500000000, A.D. 2025-Dec-06 00:00:00.0000, -3.422441679434182E+08, -1.636462963205359E+08, 2.378288920270361E+06,
2461022.500000000, A.D. 2025-Dec-13 00:00:00.0000, -3.380354523452112E+08, -1.735269135642281E+08, 1.028702026544452E+06,
2461029.500000000, A.D. 2025-Dec-20 00:00:00.0000, -3.335276033909634E+08, -1.832540144165539E+08, -3.217963328491747E+05,
2461036.500000000, A.D. 2025-Dec-27 00:00:00.0000, -3.287259619152128E+08, -1.928197327576545E+08, -1.672012164344236E+06,
2461043.500000000, A.D. 2026-Jan-03 00:00:00.0000, -3.236360143864855E+08, -2.022163790651158E+08, -3.020762308628306E+06,
2461050.500000000, A.D. 2026-Jan-10 00:00:00.0000, -3.182633883495385E+08, -2.114364387572618E+08, -4.366874538273737E+06,
2461057.500000000, A.D. 2026-Jan-17 00:00:00.0000, -3.126138482965171E+08, -2.204725706400827E+08, -5.709187635698870E+06,
2461064.500000000, A.D. 2026-Jan-24 00:00:00.0000, -3.066932918777252E+08, -2.293176054504628E+08, -7.046551459164441E+06,
2461071.500000000, A.D. 2026-Jan-31 00:00:00.0000, -3.005077464168206E+08, -2.379645445168046E+08, -8.377827001746163E+06,
2461078.500000000, A.D. 2026-Feb-07 00:00:00.0000, -2.940633656567098E+08, -2.464065586071991E+08, -9.701886455686241E+06,
2461085.500000000, A.D. 2026-Feb-14 00:00:00.0000, -2.873664264709325E+08, -2.546369869926859E+08, -1.101761330860168E+07,
2461092.500000000, A.D. 2026-Feb-21 00:00:00.0000, -2.804233251409816E+08, -2.626493361600392E+08, -1.232390246186016E+07,
2461099.500000000, A.D. 2026-Feb-28 00:00:00.0000, -2.732405742719271E+08, -2.704372770310164E+08, -1.361966017917368E+07,
2461106.500000000, A.D. 2026-Mar-07 00:00:00.0000, -2.658248023917606E+08, -2.779946426486324E+08, -1.490380383781426E+07,
2461113.500000000, A.D. 2026-Mar-14 00:00:00.0000, -2.581827534472204E+08, -2.853154286755712E+08, -1.617526192969261E+07,
2461120.500000000, A.D. 2026-Mar-21 00:00:00.0000, -2.503212844037848E+08, -2.923937938185673E+08, -1.743297424084952E+07,
2461127.500000000, A.D. 2026-Mar-28 00:00:00.0000, -2.422473629489930E+08, -2.992240591590749E+08, -1.867589194249323E+07,
2461134.500000000, A.D. 2026-Apr-04 00:00:00.0000, -2.339680658908968E+08, -3.058007073634273E+08, -1.990297761846443E+07,
2461141.500000000, A.D. 2026-Apr-11 00:00:00.0000, -2.254905779648909E+08, -3.121183821404677E+08, -2.111320528509265E+07,
2461148.500000000, A.D. 2026-Apr-18 00:00:00.0000, -2.168221908772418E+08, -3.181718879627773E+08, -2.230556042024453E+07,
2461155.500000000, A.D. 2026-Apr-25 00:00:00.0000, -2.079703025285097E+08, -3.239561900467032E+08, -2.347904000628302E+07,
2461162.500000000, A.D. 2026-May-02 00:00:00.0000, -1.989424163760046E+08, -3.294664146296364E+08, -2.463265259377567E+07,
2461169.500000000, A.D. 2026-May-09 00:00:00.0000, -1.897461408002475E+08, -3.346978496181470E+08, -2.576541840424760E+07,
2461176.500000000, A.D. 2026-May-16 00:00:00.0000, -1.803891880864603E+08, -3.396459454748954E+08, -2.687636949667804E+07,
2461183.500000000, A.D. 2026-May-23 00:00:00.0000, -1.708793729575219E+08, -3.443063153270496E+08, -2.796454992009264E+07,
2461190.500000000, A.D. 2026-May-30 00:00:00.0000, -1.612246127235193E+08, -3.486747339804172E+08, -2.902901563643548E+07,
2461197.500000000, A.D. 2026-Jun-06 00:00:00.0000, -1.514329293499150E+08, -3.527471391174507E+08, -3.006883445317361E+07,
2461204.500000000, A.D. 2026-Jun-13 00:00:00.0000, -1.415124497633943E+08, -3.565196344883413E+08, -3.108308628711209E+07,
2461211.500000000, A.D. 2026-Jun-20 00:00:00.0000, -1.314714048830314E+08, -3.599884921787791E+08, -3.207086347611365E+07,
2461218.500000000, A.D. 2026-Jun-27 00:00:00.0000, -1.213181290622629E+08, -3.631501543032460E+08, -3.303127101268651E+07,
2461225.500000000, A.D. 2026-Jul-04 00:00:00.0000, -1.110610599291835E+08, -3.660012349070477E+08, -3.396342676493067E+07,
2461232.500000000, A.D. 2026-Jul-11 00:00:00.0000, -1.007087383586413E+08, -3.685385222164741E+08, -3.486646172120273E+07,
2461239.500000000, A.D. 2026-Jul-18 00:00:00.0000, -9.026980847038023E+07, -3.707589812183362E+08, -3.573952026724531E+07,
2461246.500000000, A.D. 2026-Jul-25 00:00:00.0000, -7.975301761585653E+07, -3.726597565729094E+08, -3.658176050003864E+07,
2461253.500000000, A.D. 2026-Aug-01 00:00:00.0000, -6.916721629314326E+07, -3.742381759135073E+08, -3.739235458842210E+07,
2461260.500000000, A.D. 2026-Aug-08 00:00:00.0000, -5.852135776140596E+07, -3.754917535704665E+08, -3.817048920399345E+07,
2461267.500000000, A.D. 2026-Aug-15 00:00:00.0000, -4.782449692286959E+07, -3.764181942689580E+08, -3.891536602393526E+07,
2461274.500000000, A.D. 2026-Aug-22 00:00:00.0000, -3.708578921266302E+07, -3.770153955801170E+08, -3.962620213687031E+07,
2461281.500000000, A.D. 2026-Aug-29 00:00:00.0000, -2.631449176317377E+07, -3.772814505017372E+08, -4.030223025559463E+07,
$$EOE